COSMOS 2433 (720)       
1 32275C 07052A   23169.99979167  .00000000  00000-0  00000-0 0  1690
2 32275  66.0404 352.5014 0001150 181.3319 121.7161  2.13104466    11
COSMOS 2432 (719)       
1 32276C 07052B   23169.99979167  .00000000  00000-0  00000-0 0  1691
2 32276  66.0546 352.6087 0008633 340.5213 269.8282  2.13103670    19
COSMOS 2434 (721)       
1 32393C 07065A   23169.99979167  .00000000  00000-0  00000-0 0  1695
2 32393  64.3391 228.9368 0000869 120.1388  73.8045  2.13103206    18
COSMOS 2436 (723)       
1 32395C 07065C   23169.99979167  .00000000  00000-0  00000-0 0  1697
2 32395  64.3477 228.9976 0015242 354.1132 335.4165  2.13103148    12
COSMOS 2456 (730)       
1 36111C 09070A   23169.99979167 -.00000000  00000-0  00000-0 0  1696
2 36111  64.4643 108.4630 0005111 312.2679  41.9840  2.13099378    10
COSMOS 2457 (733)       
1 36112C 09070B   23169.99979167 -.00000000  00000-0  00000-0 0  1697
2 36112  64.4481 108.3302 0003446 177.9191 306.5150  2.13101497    10
COSMOS 2460 (732)       
1 36402C 10007C   23169.99979167  .00000000  00000-0  00000-0 0  1690
2 36402  65.9046 351.2298 0002505  83.0022  28.9467  2.13106499    16
COSMOS 2476 (744)       
1 37867C 11064A   23169.99979167 -.00000000  00000-0  00000-0 0  1691
2 37867  64.7459 109.9607 0022674 239.9644  22.9541  2.13101945    18
COSMOS 2477 (745)       
1 37868C 11064B   23169.99979167 -.00000000  00000-0  00000-0 0  1692
2 37868  64.7533 110.0295 0020001 241.1160 199.7139  2.13101814    19
COSMOS 2475 (743)       
1 37869C 11064C   23169.99979167 -.00000000  00000-0  00000-0 0  1693
2 37869  64.7605 110.0410 0024797 256.5739 142.6268  2.13102188    12
COSMOS 2485 (747)       
1 39155C 13019A   23169.99979167 -.00000000  00000-0  00000-0 0  1695
2 39155  64.9069 110.4678 0022985 235.8722  71.4114  2.13102136    19
COSMOS 2492 (754)       
1 39620C 14012A   23169.99979167  .00000000  00000-0  00000-0 0  1695
2 39620  65.7888 350.8594 0011396 331.7352   9.8183  2.13103504    11
COSMOS 2500 (755)       
1 40001C 14032A   23169.99979167  .00000000  00000-0  00000-0 0  1692
2 40001  65.7273 350.6928 0005792 180.9904  19.2133  2.13106338    11
COSMOS 2501 (702K)      
1 40315C 14075A   23169.99979167  .00000000  00000-0  00000-0 0  1697
2 40315  63.6430 228.3587 0019864 210.3814 158.6078  2.13101679    15
COSMOS 2514 (751)       
1 41330C 16008A   23169.99979167  .00000000  00000-0  00000-0 0  1693
2 41330  65.5250 350.2934 0009135 199.1472 184.5220  2.13102949    17
COSMOS 2522 (752)       
1 42939C 17055A   23169.99979167  .00000000  00000-0  00000-0 0  1692
2 42939  64.1034 229.2404 0009499 240.2627 264.3955  2.13101986    10
COSMOS 2527 (756)       
1 43508C 18053A   23169.99979167 -.00000000  00000-0  00000-0 0  1695
2 43508  65.0686 110.5443 0008647 240.3762 296.1658  2.13102465    12
COSMOS 2529 (757)       
1 43687C 18086A   23169.99979167  .00000000  00000-0  00000-0 0  1698
2 43687  64.3186 229.6552 0010987 260.6822 199.4679  2.13102222    11
COSMOS 2534 (758)       
1 44299C 19030A   23169.99979167  .00000000  00000-0  00000-0 0  1698
2 44299  64.3911 229.5744 0013095 280.4240 314.0412  2.13102240    16
COSMOS 2544 (759)       
1 44850C 19088A   23169.99979167 -.00000000  00000-0  00000-0 0  1695
2 44850  65.0545 110.3888 0013782 262.0667 317.6352  2.13102290    15
COSMOS 2545 (760)       
1 45358C 20018A   23169.99979167  .00000000  00000-0  00000-0 0  1693
2 45358  64.8651 350.6016 0006941 239.6250 189.1584  2.13102805    14
COSMOS 2547 (705K)      
1 46805C 20075A   23169.99979167  .00000000  00000-0  00000-0 0  1694
2 46805  64.6180 229.1074 0008358 242.1960  41.1737  2.13103269    14
COSMOS 2557 (706K)      
1 52984C 20075A   23169.99979167  .00000000  00000-0  00000-0 0  1699
2 52984  64.7787 352.7691 0010442 284.2271 234.9161  2.13102383    19
COSMOS 2559 (707K)      
1 54031C 22130A   23169.99979167  .00000000  00000-0  00000-0 0  1698
2 54031  64.7498 352.8995 0005113 210.9979 352.9587  2.13101647    16
COSMOS 2564 (761)       
1 54377C 22161A   23169.99979167  .00000000  00000-0  00000-0 0  1695
2 54377  64.7586 229.1465 0010672 223.8787 191.3963  2.13102331    15
